1 45155U 20008AA  22365.45733797 -.00000225  00000-0 -66966-3 0  9990
2 45155  87.8905 272.1223 0001801  72.2598 287.8726 13.11416764145454
1 45155U 20008AA  22365.68622959 -.00000302  00000-0 -88696-3 0  9992
2 45155  87.8905 272.0769 0001806  72.3963 287.7362 13.11415825145485
1 45155U 20008AA  23001.44919799 -.00000096  00000-0 -30729-3 0  9999
2 45155  87.8905 271.9253 0001796  72.2238 287.9086 13.11416298145584
1 45155U 20008AA  23001.75438579 -.00000094  00000-0 -30110-3 0  9997
2 45155  87.8905 271.8647 0001793  72.1417 287.9906 13.11416250145629
1 45155U 20008AA  23002.13587040 -.00000040  00000-0 -14800-3 0  9997
2 45155  87.8905 271.7889 0001835  75.6376 284.4955 13.11416409146459
1 45155U 20008AA  23002.44105763  .00000156  00000-0  40544-3 0  9999
2 45155  87.8904 271.7283 0001784  71.8833 288.2489 13.11416595145713
1 45155U 20008AA  23002.66994902  .00000074  00000-0  17289-3 0  9993
2 45155  87.8904 271.6829 0001786  71.9356 288.1967 13.11416169145741
1 45155U 20008AA  23003.43291763  .00000579  00000-0  15982-2 0  9991
2 45155  87.8906 271.5313 0001815  71.9741 288.1585 13.11415999145848
1 45155U 20008AA  23003.43291763  .00000579  00000-0  15982-2 0  9991
2 45155  87.8906 271.5313 0001815  71.9741 288.1585 13.11415999146625
1 45155U 20008AA  23004.50107397  .00000425  00000-0  11620-2 0  9994
2 45155  87.8907 271.3191 0001750  71.1080 289.0238 13.11417023145987
1 45155U 20008AA  23004.50107397  .00000425  00000-0  11620-2 0  9994
2 45155  87.8907 271.3191 0001750  71.1080 289.0238 13.11417023146764
1 45155U 20008AA  23005.49293119  .00000547  00000-0  15079-2 0  9998
2 45155  87.8908 271.1220 0001734  71.1565 288.9751 13.11418633146111
1 45155U 20008AA  23006.48478798  .00000639  00000-0  17676-2 0  9993
2 45155  87.8908 270.9251 0001727  70.4881 289.6433 13.11419218146246
1 45155U 20008AA  23006.48478798  .00000639  00000-0  17676-2 0  9993
2 45155  87.8908 270.9251 0001727  70.4881 289.6433 13.11419218147023
1 45155U 20008AA  23007.17145732  .00000578  00000-0  15946-2 0  9999
2 45155  87.8906 270.7886 0001711  70.3191 289.8121 13.11419705146339
1 45155U 20008AA  23007.47664364  .00000471  00000-0  12937-2 0  9998
2 45155  87.8906 270.7280 0001705  70.3358 289.7954 13.11419929146370
1 45155U 20008AA  23008.01071898  .00000451  00000-0  12367-2 0  9998
2 45155  87.8906 270.6219 0001696  70.0629 290.0682 13.11420444147220
1 45155U 20008AA  23008.46849789  .00000343  00000-0  93141-3 0  9999
2 45155  87.8906 270.5310 0001687  70.2240 289.9070 13.11420599146501
1 45155U 20008AA  23009.15516564  .00000202  00000-0  53538-3 0  9998
2 45155  87.8907 270.3946 0001670  70.0179 290.1129 13.11421042147375
1 45155U 20008AA  23009.46034902 -.00002027  00000-0 -57555-2 0  9994
2 45155  87.8907 270.3340 0001594  71.4050 288.7251 13.11430348146637
1 45155U 20008AA  23009.68924111  .00000084  00000-0  20206-3 0  9991
2 45155  87.8907 270.2885 0001691  69.9947 290.1363 13.11420692146660
1 45155U 20008AA  23010.45220443 -.00000069  00000-0 -23043-3 0  9992
2 45155  87.8907 270.1371 0001655  69.8619 290.2687 13.11421220146763
1 45155U 20008AA  23010.45220443 -.00000069  00000-0 -23043-3 0  9992
2 45155  87.8907 270.1371 0001655  69.8619 290.2687 13.11421220147540
1 45155U 20008AA  23011.21518245 -.00001677  00000-0 -47704-2 0  9992
2 45155  87.8894 269.9846 0001922  66.6798 293.4532 13.11407663146861
1 45155U 20008AA  23011.21518245 -.00001677  00000-0 -47704-2 0  9992
2 45155  87.8894 269.9846 0001922  66.6798 293.4532 13.11407663147648
1 45155U 20008AA  23011.67294868 -.00000240  00000-0 -71249-3 0  9991
2 45155  87.8899 269.8933 0001670  71.1098 289.0211 13.11419519146921
1 45155U 20008AA  23011.67294868 -.00000240  00000-0 -71249-3 0  9991
2 45155  87.8899 269.8933 0001670  71.1098 289.0211 13.11419519147708
1 45155U 20008AA  23012.66480174 -.00000451  00000-0 -13097-2 0  9998
2 45155  87.8900 269.6975 0001692  70.5858 289.5453 13.11420027147053
1 45155U 20008AA  23012.96998759 -.00000461  00000-0 -13365-2 0  9993
2 45155  87.8898 269.6368 0001689  70.9198 289.2113 13.11420024147879
1 45155U 20008AA  23013.42776638 -.00000453  00000-0 -13144-2 0  9991
2 45155  87.8899 269.5458 0001676  71.0066 289.1243 13.11420147147151
1 45155U 20008AA  23014.11443629 -.00000557  00000-0 -16084-2 0  9990
2 45155  87.8899 269.4093 0001652  70.8705 289.2602 13.11419220148023
1 45155U 20008AA  23015.10629251 -.00000482  00000-0 -13959-2 0  9992
2 45155  87.8899 269.2122 0001612  70.5075 289.6227 13.11419067147370
1 45155U 20008AA  23015.71666678 -.00000425  00000-0 -12344-2 0  9997
2 45155  87.8898 269.0909 0001590  70.3110 289.8190 13.11418157148239
1 45155U 20008AA  23015.94555937 -.00000630  00000-0 -18132-2 0  9996
2 45155  87.8898 269.0454 0001576  70.3912 289.7386 13.11416011147487
1 45155U 20008AA  23016.40334178 -.00000606  00000-0 -17444-2 0  9998
2 45155  87.8897 268.9545 0001546  70.2848 289.8446 13.11415091147541
1 45155U 20008AA  23016.70853113 -.00000634  00000-0 -18242-2 0  9994
2 45155  87.8897 268.8940 0001557  70.6734 289.4562 13.11413566148360
1 45155U 20008AA  23016.93742196 -.00000544  00000-0 -15708-2 0  9991
2 45155  87.8896 268.8485 0001554  70.7291 289.4005 13.11413766147610
1 45155U 20008AA  23017.39520405 -.00000461  00000-0 -13378-2 0  9998
2 45155  87.8896 268.7574 0001552  71.2474 288.8823 13.11414108147673
1 45155U 20008AA  23018.08187888  .00000079  00000-0  18646-3 0  9996
2 45155  87.8896 268.6210 0001560  72.3559 287.7739 13.11411756148541
1 45155U 20008AA  23018.38706732  .00000238  00000-0  63558-3 0  9993
2 45155  87.8895 268.5604 0001566  72.2070 287.9228 13.11411972147802
1 45155U 20008AA  23018.92114749  .00000282  00000-0  75900-3 0  9997
2 45155  87.8896 268.4542 0001552  71.8159 288.3138 13.11412193147879
1 45155U 20008AA  23019.37893171  .00000368  00000-0  10036-2 0  9993
2 45155  87.8896 268.3634 0001584  72.0366 288.0934 13.11410981147939
1 45155U 20008AA  23019.37893171  .00000368  00000-0  10036-2 0  9993
2 45155  87.8896 268.3634 0001584  72.0366 288.0934 13.11410981148716
1 45155U 20008AA  23020.44708990  .00000547  00000-0  15085-2 0  9995
2 45155  87.8896 268.1511 0001539  71.4108 288.7187 13.11413034148073
1 45155U 20008AA  23020.44708990  .00000547  00000-0  15085-2 0  9995
2 45155  87.8896 268.1511 0001539  71.4108 288.7187 13.11413034148859
1 45155U 20008AA  23021.66784157  .00000659  00000-0  18233-2 0  9991
2 45155  87.8894 267.9085 0001507  71.5174 288.6118 13.11413915149019
1 45155U 20008AA  23023.04118481  .00000538  00000-0  14824-2 0  9994
2 45155  87.8895 267.6356 0001502  72.3573 287.7719 13.11415289149197
1 45155U 20008AA  23024.10933874  .00000363  00000-0  98750-3 0  9990
2 45155  87.8894 267.4228 0001464  75.5275 284.6016 13.11416245149338
1 45155U 20008AA  23025.40638263  .00000023  00000-0  28856-4 0  9992
2 45155  87.8890 267.1652 0001487  74.1103 286.0189 13.11416503148728
1 45155U 20008AA  23025.40638263  .00000023  00000-0  28856-4 0  9992
2 45155  87.8890 267.1652 0001487  74.1103 286.0189 13.11416503149505
1 45155U 20008AA  23025.71156916 -.00000051  00000-0 -17982-3 0  9996
2 45155  87.8890 267.1044 0001465  74.2048 285.9242 13.11416676148761
1 45155U 20008AA  23026.09305196 -.00000061  00000-0 -20778-3 0  9992
2 45155  87.8889 267.0285 0001460  74.5875 285.5414 13.11416905148819
1 45155U 20008AA  23026.70342577 -.00000245  00000-0 -72735-3 0  9998
2 45155  87.8888 266.9072 0001456  74.8859 285.2430 13.11416268149672
1 45155U 20008AA  23027.16120555 -.00000245  00000-0 -72664-3 0  9990
2 45155  87.8888 266.8166 0001471  73.5807 286.5483 13.11416279148955
1 45155U 20008AA  23027.92417312 -.00000530  00000-0 -15319-2 0  9994
2 45155  87.8887 266.6650 0001458  73.4967 286.6321 13.11415878149059
1 45155U 20008AA  23028.07676619 -.00000415  00000-0 -12067-2 0  9997
2 45155  87.8887 266.6344 0001461  73.2808 286.8480 13.11415857149858
1 45155U 20008AA  23028.15306249 -.00000379  00000-0 -11046-2 0  9990
2 45155  87.8886 266.6191 0001458  73.1774 286.9513 13.11416272149089
1 45155U 20008AA  23028.91603160 -.00000601  00000-0 -17311-2 0  9995
2 45155  87.8886 266.4678 0001439  73.9152 286.2134 13.11414646149180
1 45155U 20008AA  23029.22121734 -.00000407  00000-0 -11834-2 0  9990
2 45155  87.8884 266.4070 0001442  74.0668 286.0618 13.11415809150002
1 45155U 20008AA  23029.67899919 -.00000488  00000-0 -14137-2 0  9994
2 45155  87.8883 266.3160 0001451  74.6416 285.4873 13.11414825149288
1 45155U 20008AA  23030.21307748 -.00000496  00000-0 -14342-2 0  9997
2 45155  87.8882 266.2098 0001436  75.0954 285.0333 13.11414736149357
1 45155U 20008AA  23030.89975022 -.00000346  00000-0 -10127-2 0  9998
2 45155  87.8881 266.0732 0001438  75.6183 284.5104 13.11413871149440
1 45155U 20008AA  23031.05234473 -.00000376  00000-0 -10973-2 0  9997
2 45155  87.8880 266.0429 0001426  75.8028 284.3258 13.11413409150244
1 45155U 20008AA  23031.12864121 -.00000325  00000-0 -95314-3 0  9991
2 45155  87.8881 266.0275 0001420  75.8164 284.3122 13.11413906149474
1 45155U 20008AA  23031.89161228 -.00000325  00000-0 -95368-3 0  9992
2 45155  87.8880 265.8758 0001406  77.0689 283.0595 13.11412951149576
